[{"OBJECT_NAME":"ONEWEB-0721","OBJECT_ID":"2023-068R","EPOCH":"2026-03-09T15:32:52.865376","MEAN_MOTION":13.22461847,"ECCENTRICITY":0.00019199,"INCLINATION":86.676,"RA_OF_ASC_NODE":117.3008,"ARG_OF_PERICENTER":100.0966,"MEAN_ANOMALY":260.0384,"EPHEMERIS_TYPE":0,"CLASSIFICATION_TYPE":"U","NORAD_CAT_ID":56725,"ELEMENT_SET_NO":999,"REV_AT_EPOCH":14478,"BSTAR":-0.00017098121,"MEAN_MOTION_DOT":-5.7e-7,"MEAN_MOTION_DDOT":0},{"OBJECT_NAME":"SCOUT B R\/B","OBJECT_ID":"1965-063B","EPOCH":"2026-03-09T09:18:36.171360","MEAN_MOTION":11.78599895,"ECCENTRICITY":0.07867814,"INCLINATION":69.2331,"RA_OF_ASC_NODE":44.8229,"ARG_OF_PERICENTER":251.2539,"MEAN_ANOMALY":273.0411,"EPHEMERIS_TYPE":0,"CLASSIFICATION_TYPE":"U","NORAD_CAT_ID":1502,"ELEMENT_SET_NO":999,"REV_AT_EPOCH":60663,"BSTAR":-0.0001551122,"MEAN_MOTION_DOT":-5.7e-7,"MEAN_MOTION_DDOT":0}]
